CCSDS_OMM_VERS = 2.0
CREATION_DATE  = 
ORIGINATOR     = 

OBJECT_NAME    = STARLINK-35815
OBJECT_ID      = 2025-268W
CENTER_NAME    = EARTH
REF_FRAME      = TEME
TIME_SYSTEM    = UTC
MEAN_ELEMENT_THEORY = SGP/SGP4

EPOCH          = 2025-12-28T22:00:01.999584
MEAN_MOTION    = 15.29185186
ECCENTRICITY   = .00018316
INCLINATION    = 43.0008
RA_OF_ASC_NODE = 26.7670
ARG_OF_PERICENTER = 264.9187
MEAN_ANOMALY   = 170.6570

EPHEMERIS_TYPE = 0
CLASSIFICATION_TYPE = U
NORAD_CAT_ID   = 66577
ELEMENT_SET_NO = 999
REV_AT_EPOCH   = 599
BSTAR          = -.85134875E-1
MEAN_MOTION_DOT = -.2201941E-1
MEAN_MOTION_DDOT = 0

CCSDS_OMM_VERS = 2.0
CREATION_DATE  = 
ORIGINATOR     = 

OBJECT_NAME    = STARLINK-35743
OBJECT_ID      = 2025-268X
CENTER_NAME    = EARTH
REF_FRAME      = TEME
TIME_SYSTEM    = UTC
MEAN_ELEMENT_THEORY = SGP/SGP4

EPOCH          = 2025-12-28T22:00:01.999584
MEAN_MOTION    = 15.30157017
ECCENTRICITY   = .00007312
INCLINATION    = 43.0007
RA_OF_ASC_NODE = 26.7199
ARG_OF_PERICENTER = 279.9729
MEAN_ANOMALY   = 175.3436

EPHEMERIS_TYPE = 0
CLASSIFICATION_TYPE = U
NORAD_CAT_ID   = 66578
ELEMENT_SET_NO = 999
REV_AT_EPOCH   = 593
BSTAR          = -.87111188E-1
MEAN_MOTION_DOT = -.2308571E-1
MEAN_MOTION_DDOT = 0

CCSDS_OMM_VERS = 2.0
CREATION_DATE  = 
ORIGINATOR     = 

OBJECT_NAME    = STARLINK-35868
OBJECT_ID      = 2025-268Y
CENTER_NAME    = EARTH
REF_FRAME      = TEME
TIME_SYSTEM    = UTC
MEAN_ELEMENT_THEORY = SGP/SGP4

EPOCH          = 2025-12-28T22:00:01.999584
MEAN_MOTION    = 15.30763147
ECCENTRICITY   = .00015252
INCLINATION    = 43.0003
RA_OF_ASC_NODE = 26.6744
ARG_OF_PERICENTER = 275.8933
MEAN_ANOMALY   = 198.8120

EPHEMERIS_TYPE = 0
CLASSIFICATION_TYPE = U
NORAD_CAT_ID   = 66579
ELEMENT_SET_NO = 999
REV_AT_EPOCH   = 605
BSTAR          = -.69167716E-1
MEAN_MOTION_DOT = -.1878408E-1
MEAN_MOTION_DDOT = 0

CCSDS_OMM_VERS = 2.0
CREATION_DATE  = 
ORIGINATOR     = 

OBJECT_NAME    = STARLINK-35872
OBJECT_ID      = 2025-268Z
CENTER_NAME    = EARTH
REF_FRAME      = TEME
TIME_SYSTEM    = UTC
MEAN_ELEMENT_THEORY = SGP/SGP4

EPOCH          = 2025-12-28T22:00:01.999584
MEAN_MOTION    = 15.31639037
ECCENTRICITY   = .00014612
INCLINATION    = 43.0007
RA_OF_ASC_NODE = 26.6295
ARG_OF_PERICENTER = 278.6365
MEAN_ANOMALY   = 214.8351

EPHEMERIS_TYPE = 0
CLASSIFICATION_TYPE = U
NORAD_CAT_ID   = 66580
ELEMENT_SET_NO = 999
REV_AT_EPOCH   = 605
BSTAR          = -.71201259E-1
MEAN_MOTION_DOT = -.2008639E-1
MEAN_MOTION_DDOT = 0

CCSDS_OMM_VERS = 2.0
CREATION_DATE  = 
ORIGINATOR     = 

OBJECT_NAME    = STARLINK-35744
OBJECT_ID      = 2025-268AA
CENTER_NAME    = EARTH
REF_FRAME      = TEME
TIME_SYSTEM    = UTC
MEAN_ELEMENT_THEORY = SGP/SGP4

EPOCH          = 2025-12-28T22:00:01.999584
MEAN_MOTION    = 15.32498055
ECCENTRICITY   = .00012718
INCLINATION    = 43.0001
RA_OF_ASC_NODE = 26.5835
ARG_OF_PERICENTER = 284.0117
MEAN_ANOMALY   = 227.6663

EPHEMERIS_TYPE = 0
CLASSIFICATION_TYPE = U
NORAD_CAT_ID   = 66581
ELEMENT_SET_NO = 999
REV_AT_EPOCH   = 593
BSTAR          = -.71259806E-1
MEAN_MOTION_DOT = -.206006E-1
MEAN_MOTION_DDOT = 0

CCSDS_OMM_VERS = 2.0
CREATION_DATE  = 
ORIGINATOR     = 

OBJECT_NAME    = STARLINK-35746
OBJECT_ID      = 2025-268AB
CENTER_NAME    = EARTH
REF_FRAME      = TEME
TIME_SYSTEM    = UTC
MEAN_ELEMENT_THEORY = SGP/SGP4

EPOCH          = 2025-12-28T22:00:01.999584
MEAN_MOTION    = 15.33954242
ECCENTRICITY   = .0001155
INCLINATION    = 43.0011
RA_OF_ASC_NODE = 26.5126
ARG_OF_PERICENTER = 278.4351
MEAN_ANOMALY   = 262.0715

EPHEMERIS_TYPE = 0
CLASSIFICATION_TYPE = U
NORAD_CAT_ID   = 66582
ELEMENT_SET_NO = 999
REV_AT_EPOCH   = 593
BSTAR          = -.68632337E-1
MEAN_MOTION_DOT = -.2076497E-1
MEAN_MOTION_DDOT = 0

CCSDS_OMM_VERS = 2.0
CREATION_DATE  = 
ORIGINATOR     = 

OBJECT_NAME    = STARLINK-35941
OBJECT_ID      = 2025-268AC
CENTER_NAME    = EARTH
REF_FRAME      = TEME
TIME_SYSTEM    = UTC
MEAN_ELEMENT_THEORY = SGP/SGP4

EPOCH          = 2025-12-28T22:00:01.999584
MEAN_MOTION    = 15.34794712
ECCENTRICITY   = .00009874
INCLINATION    = 43.0010
RA_OF_ASC_NODE = 26.4721
ARG_OF_PERICENTER = 281.2588
MEAN_ANOMALY   = 275.9248

EPHEMERIS_TYPE = 0
CLASSIFICATION_TYPE = U
NORAD_CAT_ID   = 66583
ELEMENT_SET_NO = 999
REV_AT_EPOCH   = 598
BSTAR          = -.66897102E-1
MEAN_MOTION_DOT = -.207899E-1
MEAN_MOTION_DDOT = 0

CCSDS_OMM_VERS = 2.0
CREATION_DATE  = 
ORIGINATOR     = 

OBJECT_NAME    = STARLINK-35939
OBJECT_ID      = 2025-268AD
CENTER_NAME    = EARTH
REF_FRAME      = TEME
TIME_SYSTEM    = UTC
MEAN_ELEMENT_THEORY = SGP/SGP4

EPOCH          = 2025-12-28T22:00:01.999584
MEAN_MOTION    = 15.35620733
ECCENTRICITY   = .00010471
INCLINATION    = 43.0001
RA_OF_ASC_NODE = 26.4338
ARG_OF_PERICENTER = 273.5003
MEAN_ANOMALY   = 299.5800

EPHEMERIS_TYPE = 0
CLASSIFICATION_TYPE = U
NORAD_CAT_ID   = 66584
ELEMENT_SET_NO = 999
REV_AT_EPOCH   = 605
BSTAR          = -.65401784E-1
MEAN_MOTION_DOT = -.2086636E-1
MEAN_MOTION_DDOT = 0

CCSDS_OMM_VERS = 2.0
CREATION_DATE  = 
ORIGINATOR     = 

OBJECT_NAME    = STARLINK-35963
OBJECT_ID      = 2025-268AE
CENTER_NAME    = EARTH
REF_FRAME      = TEME
TIME_SYSTEM    = UTC
MEAN_ELEMENT_THEORY = SGP/SGP4

EPOCH          = 2025-12-28T22:00:01.999584
MEAN_MOTION    = 15.27559078
ECCENTRICITY   = .00009763
INCLINATION    = 43.0010
RA_OF_ASC_NODE = 27.1055
ARG_OF_PERICENTER = 268.3785
MEAN_ANOMALY   = 26.5639

EPHEMERIS_TYPE = 0
CLASSIFICATION_TYPE = U
NORAD_CAT_ID   = 66585
ELEMENT_SET_NO = 999
REV_AT_EPOCH   = 598
BSTAR          = .20859991E-2
MEAN_MOTION_DOT = .57552E-3
MEAN_MOTION_DDOT = 0

CCSDS_OMM_VERS = 2.0
CREATION_DATE  = 
ORIGINATOR     = 

OBJECT_NAME    = TJS-21
OBJECT_ID      = 2025-269A
CENTER_NAME    = EARTH
REF_FRAME      = TEME
TIME_SYSTEM    = UTC
MEAN_ELEMENT_THEORY = SGP/SGP4

EPOCH          = 2025-12-22T16:41:16.797984
MEAN_MOTION    = 2.00587444
ECCENTRICITY   = .68076174
INCLINATION    = 63.2754
RA_OF_ASC_NODE = 161.3014
ARG_OF_PERICENTER = 269.7248
MEAN_ANOMALY   = 18.6681

EPHEMERIS_TYPE = 0
CLASSIFICATION_TYPE = U
NORAD_CAT_ID   = 66586
ELEMENT_SET_NO = 999
REV_AT_EPOCH   = 63
BSTAR          = -.73521313E-1
MEAN_MOTION_DOT = .1087E-4
MEAN_MOTION_DDOT = 0

CCSDS_OMM_VERS = 2.0
CREATION_DATE  = 
ORIGINATOR     = 

OBJECT_NAME    = STARLINK-36076
OBJECT_ID      = 2025-270A
CENTER_NAME    = EARTH
REF_FRAME      = TEME
TIME_SYSTEM    = UTC
MEAN_ELEMENT_THEORY = SGP/SGP4

EPOCH          = 2025-12-28T14:53:37.448448
MEAN_MOTION    = 15.40749220
ECCENTRICITY   = .00013203
INCLINATION    = 43.0003
RA_OF_ASC_NODE = 101.2796
ARG_OF_PERICENTER = 280.2421
MEAN_ANOMALY   = 79.8286

EPHEMERIS_TYPE = 0
CLASSIFICATION_TYPE = U
NORAD_CAT_ID   = 66588
ELEMENT_SET_NO = 999
REV_AT_EPOCH   = 679
BSTAR          = .11424393E-2
MEAN_MOTION_DOT = .47797E-3
MEAN_MOTION_DDOT = 0

CCSDS_OMM_VERS = 2.0
CREATION_DATE  = 
ORIGINATOR     = 

OBJECT_NAME    = STARLINK-35447
OBJECT_ID      = 2025-270B
CENTER_NAME    = EARTH
REF_FRAME      = TEME
TIME_SYSTEM    = UTC
MEAN_ELEMENT_THEORY = SGP/SGP4

EPOCH          = 2025-12-28T16:01:10.638336
MEAN_MOTION    = 15.40710665
ECCENTRICITY   = .00008773
INCLINATION    = 43.0003
RA_OF_ASC_NODE = 100.7658
ARG_OF_PERICENTER = 241.8836
MEAN_ANOMALY   = 118.1932

EPHEMERIS_TYPE = 0
CLASSIFICATION_TYPE = U
NORAD_CAT_ID   = 66589
ELEMENT_SET_NO = 999
REV_AT_EPOCH   = 691
BSTAR          = .41896723E-3
MEAN_MOTION_DOT = .17243E-3
MEAN_MOTION_DDOT = 0

