STARLINK-35815          
1 66577U 25268W   25362.91668981 -.02201941  00000+0 -85135-1 0  9993
2 66577  43.0008  26.7670 0001831 264.9187 170.6570 15.29185186  5991
STARLINK-35743          
1 66578U 25268X   25362.91668981 -.02308571  00000+0 -87111-1 0  9997
2 66578  43.0007  26.7199 0000731 279.9729 175.3436 15.30157017  5934
STARLINK-35868          
1 66579U 25268Y   25362.91668981 -.01878408  00000+0 -69168-1 0  9990
2 66579  43.0003  26.6744 0001525 275.8933 198.8120 15.30763147  6051
STARLINK-35872          
1 66580U 25268Z   25362.91668981 -.02008639  00000+0 -71201-1 0  9995
2 66580  43.0007  26.6295 0001461 278.6365 214.8351 15.31639037  6053
STARLINK-35744          
1 66581U 25268AA  25362.91668981 -.02060060  00000+0 -71260-1 0  9997
2 66581  43.0001  26.5835 0001271 284.0117 227.6663 15.32498055  5930
STARLINK-35746          
1 66582U 25268AB  25362.91668981 -.02076497  00000+0 -68632-1 0  9998
2 66582  43.0011  26.5126 0001155 278.4351 262.0715 15.33954242  5930
STARLINK-35941          
1 66583U 25268AC  25362.91668981 -.02078990  00000+0 -66897-1 0  9990
2 66583  43.0010  26.4721 0000987 281.2588 275.9248 15.34794712  5980
STARLINK-35939          
1 66584U 25268AD  25362.91668981 -.02086636  00000+0 -65402-1 0  9998
2 66584  43.0001  26.4338 0001047 273.5003 299.5800 15.35620733  6056
STARLINK-35963          
1 66585U 25268AE  25362.91668981  .00057552  00000+0  20860-2 0  9990
2 66585  43.0010  27.1055 0000976 268.3785  26.5639 15.27559078  5983
TJS-21                  
1 66586U 25269A   25356.69533331  .00001087  00000+0 -73521-1 0  9994
2 66586  63.2754 161.3014 6807617 269.7248  18.6681  2.00587444   632
STARLINK-36076          
1 66588U 25270A   25362.62057232  .00047797  00000+0  11424-2 0  9991
2 66588  43.0003 101.2796 0001320 280.2421  79.8286 15.40749220  6792
STARLINK-35447          
1 66589U 25270B   25362.66748424  .00017243  00000+0  41897-3 0  9997
2 66589  43.0003 100.7658 0000877 241.8836 118.1932 15.40710665  6913
